{
  "norad_id": 53010,
  "name": "STARLINK-4263",
  "history": [
    {
      "epoch": "2026-03-28T12:12:48.668832Z",
      "apogee_km": 540.8104565579224,
      "perigee_km": 538.690815786199,
      "latitude_deg": -4.8879831541723246e-05,
      "longitude_deg": 0.23454967895031942,
      "height_km": 540.6849796225777,
      "semi_major_axis_km": 6917.88763617206,
      "eccentricity": 0.0001532,
      "inclination_deg": 53.2196,
      "raan_deg": 9.3657,
      "arg_perigee_deg": 92.0892,
      "mean_anomaly_deg": 268.0275,
      "mean_motion_rev_day": 15.08837629
    },
    {
      "epoch": "2026-03-29T00:55:53.423328Z",
      "apogee_km": 540.7489786474935,
      "perigee_km": 538.7248087461976,
      "latitude_deg": 1.5781178227747295e-05,
      "longitude_deg": 166.56377799891175,
      "height_km": 540.6295678826837,
      "semi_major_axis_km": 6917.873893696846,
      "eccentricity": 0.0001463,
      "inclination_deg": 53.2194,
      "raan_deg": 6.987,
      "arg_perigee_deg": 89.8245,
      "mean_anomaly_deg": 270.2915,
      "mean_motion_rev_day": 15.08842125
    },
    {
      "epoch": "2026-03-30T03:57:26.438112Z",
      "apogee_km": 540.7341382059412,
      "perigee_km": 538.7265730993313,
      "latitude_deg": 1.8180164476859177e-05,
      "longitude_deg": 115.0115071574487,
      "height_km": 540.7154986331524,
      "semi_major_axis_km": 6917.867355652636,
      "eccentricity": 0.0001451,
      "inclination_deg": 53.218,
      "raan_deg": 1.9322,
      "arg_perigee_deg": 95.1151,
      "mean_anomaly_deg": 265.0007,
      "mean_motion_rev_day": 15.08844264
    },
    {
      "epoch": "2026-03-31T21:17:29.088672Z",
      "apogee_km": 540.6925537480811,
      "perigee_km": 538.8302554975571,
      "latitude_deg": 5.085663693608629e-05,
      "longitude_deg": -154.42924025548464,
      "height_km": 540.6539686136593,
      "semi_major_axis_km": 6917.898404622819,
      "eccentricity": 0.0001346,
      "inclination_deg": 53.2175,
      "raan_deg": 354.2,
      "arg_perigee_deg": 89.8054,
      "mean_anomaly_deg": 270.3093,
      "mean_motion_rev_day": 15.08834106
    },
    {
      "epoch": "2026-04-01T21:08:16.296288Z",
      "apogee_km": 540.6400068176245,
      "perigee_km": 538.8897776388903,
      "latitude_deg": -1.2114596150326005e-05,
      "longitude_deg": -157.56542299227468,
      "height_km": 540.5194574424768,
      "semi_major_axis_km": 6917.901892228258,
      "eccentricity": 0.0001265,
      "inclination_deg": 53.2176,
      "raan_deg": 349.7399,
      "arg_perigee_deg": 80.7069,
      "mean_anomaly_deg": 279.4066,
      "mean_motion_rev_day": 15.08832965
    },
    {
      "epoch": "2026-04-02T20:59:03.192864Z",
      "apogee_km": 540.6346913868283,
      "perigee_km": 538.8554121231164,
      "latitude_deg": 3.9862362741881236e-05,
      "longitude_deg": -160.69862120231483,
      "height_km": 540.6387577976352,
      "semi_major_axis_km": 6917.882051754972,
      "eccentricity": 0.0001286,
      "inclination_deg": 53.2182,
      "raan_deg": 345.2814,
      "arg_perigee_deg": 89.8595,
      "mean_anomaly_deg": 270.2545,
      "mean_motion_rev_day": 15.08839456
    },
    {
      "epoch": "2026-04-02T22:34:26.238144Z",
      "apogee_km": 540.6513256664575,
      "perigee_km": 538.8310935519448,
      "latitude_deg": 1.0543357876216648e-05,
      "longitude_deg": 175.09314695682508,
      "height_km": 540.6581315638606,
      "semi_major_axis_km": 6917.878209609201,
      "eccentricity": 0.00013156,
      "inclination_deg": 53.2186,
      "raan_deg": 344.9845,
      "arg_perigee_deg": 91.3239,
      "mean_anomaly_deg": 268.7904,
      "mean_motion_rev_day": 15.08840713
    },
    {
      "epoch": "2026-04-03T20:49:50.739168Z",
      "apogee_km": 540.711501272116,
      "perigee_km": 538.802162574505,
      "latitude_deg": -1.8658018496229166e-05,
      "longitude_deg": -163.8392169151864,
      "height_km": 540.6376193333258,
      "semi_major_axis_km": 6917.89383192331,
      "eccentricity": 0.000138,
      "inclination_deg": 53.2165,
      "raan_deg": 340.8183,
      "arg_perigee_deg": 89.1119,
      "mean_anomaly_deg": 271.0031,
      "mean_motion_rev_day": 15.08835602
    },
    {
      "epoch": "2026-04-04T01:36:00.212832Z",
      "apogee_km": 540.682899580057,
      "perigee_km": 538.8329161237989,
      "latitude_deg": 5.228917381144708e-05,
      "longitude_deg": 123.53449404344099,
      "height_km": 540.6496112514336,
      "semi_major_axis_km": 6917.894907851927,
      "eccentricity": 0.00013371,
      "inclination_deg": 53.2177,
      "raan_deg": 339.9273,
      "arg_perigee_deg": 89.7487,
      "mean_anomaly_deg": 270.3659,
      "mean_motion_rev_day": 15.0883525
    },
    {
      "epoch": "2026-04-05T09:23:41.926272Z",
      "apogee_km": 540.6742644318429,
      "perigee_km": 538.75456066486,
      "latitude_deg": 3.23277831687529e-05,
      "longitude_deg": -0.6410993695818844,
      "height_km": 540.4779977838526,
      "semi_major_axis_km": 6917.851412548351,
      "eccentricity": 0.00013875,
      "inclination_deg": 53.2188,
      "raan_deg": 333.9813,
      "arg_perigee_deg": 82.0804,
      "mean_anomaly_deg": 278.0346,
      "mean_motion_rev_day": 15.0884948
    }
  ]
}